COSMOS 2476 (744)       
1 37867U 11064A   26172.42849314 -.00000052  00000+0  00000+0 0  9992
2 37867  65.2724  72.7282 0022615 238.6992 299.7329  2.13103667113850
COSMOS 2477 (745)       
1 37868U 11064B   26171.26952727 -.00000039  00000+0  00000+0 0  9992
2 37868  65.2782  72.8466 0019648 240.0065 309.6330  2.13102843113825
COSMOS 2475 (743)       
1 37869U 11064C   26172.27141125 -.00000050  00000+0  00000+0 0  9990
2 37869  65.2855  72.8344 0025398 253.0476 300.3064  2.13101681113855
COSMOS 2485 (747)       
1 39155U 13019A   26172.13334175 -.00000048  00000+0  00000+0 0  9993
2 39155  65.4217  73.4720 0023003 233.7016 126.1208  2.13103118102365
COSMOS 2492 (754)       
1 39620U 14012A   26169.27664962 -.00000055  00000+0  00000+0 0  9993
2 39620  65.2971 313.8989 0010348 324.5914  35.3281  2.13103143 95269
COSMOS 2500 (755)       
1 40001U 14032A   26172.26192068 -.00000067  00000+0  00000+0 0  9999
2 40001  65.2298 313.5443 0007492 184.9913 174.9944  2.13105734 93544
COSMOS 2501 (702K)      
1 40315U 14075A   26172.05477182  .00000072  00000+0  00000+0 0  9999
2 40315  63.6166 190.2381 0022628 212.5574 147.3441  2.13101228 89936
COSMOS 2514 (751)       
1 41330U 16008A   26170.63146802 -.00000059  00000+0  00000+0 0  9995
2 41330  65.0201 312.9226 0011376 198.2261 161.7251  2.13102571 80675
